{
  "type": "FeatureCollection",
  "features": [
    {
      "type": "Feature",
      "properties": {
        "norad_id": 66914,
        "name": "2025-284B",
        "group": "last-30-days",
        "lat": -80.18313746201304,
        "lon": 50.690939956203756,
        "alt_km": 511.2577104389329,
        "timestamp": "2025-12-13T16:48:31.467817+00:00",
        "meta_object_name": "2025-284B",
        "meta_object_id": "2025-284B",
        "meta_epoch": "2025-12-12T23:48:15.313824",
        "meta_mean_motion": 15.18924464,
        "meta_eccentricity": 0.00083391,
        "meta_inclination": 80.4052,
        "meta_ra_of_asc_node": 129.4462,
        "meta_arg_of_pericenter": 246.2962,
        "meta_mean_anomaly": 113.7391,
        "meta_ephemeris_type": 0,
        "meta_classification_type": "U",
        "meta_norad_cat_id": 66914,
        "meta_element_set_no": 999,
        "meta_rev_at_epoch": 116,
        "meta_bstar": 0.00061062455,
        "meta_mean_motion_dot": 0.00012788,
        "meta_mean_motion_ddot": 0,
        "tle_line1": "1 66914U 25284B   25346.99184391  .00012788  00000+0  61062-3 0  9994",
        "tle_line2": "2 66914  80.4052 129.4462 0008339 246.2962 113.7391 15.18924464  1166"
      },
      "geometry": {
        "type": "Point",
        "coordinates": [
          50.690939956203756,
          -80.18313746201304
        ]
      }
    },
    {
      "type": "Feature",
      "properties": {
        "norad_id": 66915,
        "name": "HULIANWANG DIGUI-105",
        "group": "last-30-days",
        "lat": 3.9943276507058583,
        "lon": 116.71955327919017,
        "alt_km": 879.8234779379536,
        "timestamp": "2025-12-13T16:48:31.467827+00:00",
        "meta_object_name": "HULIANWANG DIGUI-105",
        "meta_object_id": "2025-285A",
        "meta_epoch": "2025-12-12T21:59:21.447744",
        "meta_mean_motion": 14.03715288,
        "meta_eccentricity": 0.0007935,
        "meta_inclination": 50.004,
        "meta_ra_of_asc_node": 116.5531,
        "meta_arg_of_pericenter": 283.8559,
        "meta_mean_anomaly": 76.1462,
        "meta_ephemeris_type": 0,
        "meta_classification_type": "U",
        "meta_norad_cat_id": 66915,
        "meta_element_set_no": 999,
        "meta_rev_at_epoch": 93,
        "meta_bstar": 0.00019734694,
        "meta_mean_motion_dot": 1.61e-06,
        "meta_mean_motion_ddot": 0,
        "tle_line1": "1 66915U 25285A   25346.91622046  .00000161  00000+0  19735-3 0  9994",
        "tle_line2": "2 66915  50.0040 116.5531 0007935 283.8559  76.1462 14.03715288   931"
      },
      "geometry": {
        "type": "Point",
        "coordinates": [
          116.71955327919017,
          3.9943276507058583
        ]
      }
    },
    {
      "type": "Feature",
      "properties": {
        "norad_id": 66916,
        "name": "HULIANWANG DIGUI-106",
        "group": "last-30-days",
        "lat": 12.92524739449645,
        "lon": 124.44636683524719,
        "alt_km": 874.0228767236867,
        "timestamp": "2025-12-13T16:48:31.467839+00:00",
        "meta_object_name": "HULIANWANG DIGUI-106",
        "meta_object_id": "2025-285B",
        "meta_epoch": "2025-12-12T21:57:27.621792",
        "meta_mean_motion": 14.05514799,
        "meta_eccentricity": 0.00069719,
        "meta_inclination": 50.0049,
        "meta_ra_of_asc_node": 116.5476,
        "meta_arg_of_pericenter": 277.9821,
        "meta_mean_anomaly": 82.0293,
        "meta_ephemeris_type": 0,
        "meta_classification_type": "U",
        "meta_norad_cat_id": 66916,
        "meta_element_set_no": 999,
        "meta_rev_at_epoch": 93,
        "meta_bstar": 0.00017985608,
        "meta_mean_motion_dot": 1.42e-06,
        "meta_mean_motion_ddot": 0,
        "tle_line1": "1 66916U 25285B   25346.91490303  .00000142  00000+0  17986-3 0  9999",
        "tle_line2": "2 66916  50.0049 116.5476 0006971 277.9821  82.0293 14.05514799   938"
      },
      "geometry": {
        "type": "Point",
        "coordinates": [
          124.44636683524719,
          12.92524739449645
        ]
      }
    },
    {
      "type": "Feature",
      "properties": {
        "norad_id": 66917,
        "name": "HULIANWANG DIGUI-107",
        "group": "last-30-days",
        "lat": 14.296080695153837,
        "lon": 125.68463618433478,
        "alt_km": 873.0746923621409,
        "timestamp": "2025-12-13T16:48:31.467849+00:00",
        "meta_object_name": "HULIANWANG DIGUI-107",
        "meta_object_id": "2025-285C",
        "meta_epoch": "2025-12-12T23:39:22.477248",
        "meta_mean_motion": 14.05580431,
        "meta_eccentricity": 0.00075586,
        "meta_inclination": 50.0015,
        "meta_ra_of_asc_node": 116.2514,
        "meta_arg_of_pericenter": 285.9519,
        "meta_mean_anomaly": 74.0553,
        "meta_ephemeris_type": 0,
        "meta_classification_type": "U",
        "meta_norad_cat_id": 66917,
        "meta_element_set_no": 999,
        "meta_rev_at_epoch": 94,
        "meta_bstar": 1.167066e-05,
        "meta_mean_motion_dot": -1.33e-06,
        "meta_mean_motion_ddot": 0,
        "tle_line1": "1 66917U 25285C   25346.98567682 -.00000133  00000+0  11671-4 0  9999",
        "tle_line2": "2 66917  50.0015 116.2514 0007558 285.9519  74.0553 14.05580431   944"
      },
      "geometry": {
        "type": "Point",
        "coordinates": [
          125.68463618433478,
          14.296080695153837
        ]
      }
    },
    {
      "type": "Feature",
      "properties": {
        "norad_id": 66918,
        "name": "HULIANWANG DIGUI-108",
        "group": "last-30-days",
        "lat": 16.709880161971558,
        "lon": 127.92484412802006,
        "alt_km": 872.9279734365819,
        "timestamp": "2025-12-13T16:48:31.467859+00:00",
        "meta_object_name": "HULIANWANG DIGUI-108",
        "meta_object_id": "2025-285D",
        "meta_epoch": "2025-12-12T23:38:32.682336",
        "meta_mean_motion": 14.05705537,
        "meta_eccentricity": 0.00064715,
        "meta_inclination": 50.0036,
        "meta_ra_of_asc_node": 116.2507,
        "meta_arg_of_pericenter": 281.0953,
        "meta_mean_anomaly": 78.9225,
        "meta_ephemeris_type": 0,
        "meta_classification_type": "U",
        "meta_norad_cat_id": 66918,
        "meta_element_set_no": 999,
        "meta_rev_at_epoch": 94,
        "meta_bstar": 0.0001916341,
        "meta_mean_motion_dot": 1.62e-06,
        "meta_mean_motion_ddot": 0,
        "tle_line1": "1 66918U 25285D   25346.98510049  .00000162  00000+0  19163-3 0  9999",
        "tle_line2": "2 66918  50.0036 116.2507 0006471 281.0953  78.9225 14.05705537   947"
      },
      "geometry": {
        "type": "Point",
        "coordinates": [
          127.92484412802006,
          16.709880161971558
        ]
      }
    },
    {
      "type": "Feature",
      "properties": {
        "norad_id": 66919,
        "name": "HULIANWANG DIGUI-109",
        "group": "last-30-days",
        "lat": 17.008226161732306,
        "lon": 128.20912775015034,
        "alt_km": 871.8987201846921,
        "timestamp": "2025-12-13T16:48:31.467868+00:00",
        "meta_object_name": "HULIANWANG DIGUI-109",
        "meta_object_id": "2025-285E",
        "meta_epoch": "2025-12-12T23:38:26.407104",
        "meta_mean_motion": 14.05716691,
        "meta_eccentricity": 0.00078658,
        "meta_inclination": 50.0064,
        "meta_ra_of_asc_node": 116.2539,
        "meta_arg_of_pericenter": 292.5469,
        "meta_mean_anomaly": 67.4603,
        "meta_ephemeris_type": 0,
        "meta_classification_type": "U",
        "meta_norad_cat_id": 66919,
        "meta_element_set_no": 999,
        "meta_rev_at_epoch": 94,
        "meta_bstar": -4.51821e-07,
        "meta_mean_motion_dot": -1.53e-06,
        "meta_mean_motion_ddot": 0,
        "tle_line1": "1 66919U 25285E   25346.98502786 -.00000153  00000+0 -45182-6 0  9994",
        "tle_line2": "2 66919  50.0064 116.2539 0007865 292.5469  67.4603 14.05716691   947"
      },
      "geometry": {
        "type": "Point",
        "coordinates": [
          128.20912775015034,
          17.008226161732306
        ]
      }
    },
    {
      "type": "Feature",
      "properties": {
        "norad_id": 66920,
        "name": "HULIANWANG DIGUI-110",
        "group": "last-30-days",
        "lat": 19.565973710539435,
        "lon": 130.68446719083713,
        "alt_km": 871.591727848383,
        "timestamp": "2025-12-13T16:48:31.467880+00:00",
        "meta_object_name": "HULIANWANG DIGUI-110",
        "meta_object_id": "2025-285F",
        "meta_epoch": "2025-12-12T23:37:33.037824",
        "meta_mean_motion": 14.05851365,
        "meta_eccentricity": 0.00058308,
        "meta_inclination": 50.0094,
        "meta_ra_of_asc_node": 116.2544,
        "meta_arg_of_pericenter": 289.3694,
        "meta_mean_anomaly": 70.6581,
        "meta_ephemeris_type": 0,
        "meta_classification_type": "U",
        "meta_norad_cat_id": 66920,
        "meta_element_set_no": 999,
        "meta_rev_at_epoch": 94,
        "meta_bstar": 0.00018273329,
        "meta_mean_motion_dot": 1.48e-06,
        "meta_mean_motion_ddot": 0,
        "tle_line1": "1 66920U 25285F   25346.98441016  .00000148  00000+0  18273-3 0  9994",
        "tle_line2": "2 66920  50.0094 116.2544 0005830 289.3694  70.6581 14.05851365   941"
      },
      "geometry": {
        "type": "Point",
        "coordinates": [
          130.68446719083713,
          19.565973710539435
        ]
      }
    }
  ]
}